{"type": "FeatureCollection", "features": [ {"type": "Feature", "properties": {"norad_id": 66737, "name": "FLOCK 4H-34", "group": "last-30-days", "lat": 18.122505804413134, "lon": -105.38054917293114, "alt_km": 510.0924726940075, "timestamp": "2025-12-26T14:28:46.395429+00:00", "meta": {"OBJECT_NAME": "FLOCK 4H-34", "OBJECT_ID": "2025-276BZ", "EPOCH": "2025-12-26T05:51:39.365568", "MEAN_MOTION": 15.18196681, "ECCENTRICITY": 0.0002398, "INCLINATION": 97.4431, "RA_OF_ASC_NODE": 71.8139, "ARG_OF_PERICENTER": 154.8808, "MEAN_ANOMALY": 205.2543, "EPHEMERIS_TYPE": 0, "CLASSIFICATION_TYPE": "U", "NORAD_CAT_ID": 66737, "ELEMENT_SET_NO": 999, "REV_AT_EPOCH": 342, "BSTAR": 0.00028116948, "MEAN_MOTION_DOT": 5.683e-05, "MEAN_MOTION_DDOT": 0}, "tle": {"line1": "1 66737U 25276BZ  25360.24420562  .00005683  00000+0  28117-3 0  9995", "line2": "2 66737  97.4431  71.8139 0002398 154.8808 205.2543 15.18196681  3420"}}, "geometry": {"type": "Point", "coordinates": [-105.38054917293114, 18.122505804413134]}}, {"type": "Feature", "properties": {"norad_id": 66738, "name": "FLOCK 4H-35", "group": "last-30-days", "lat": 8.007983929092699, "lon": -106.79008110012721, "alt_km": 511.41333934275735, "timestamp": "2025-12-26T14:28:46.395440+00:00", "meta": {"OBJECT_NAME": "FLOCK 4H-35", "OBJECT_ID": "2025-276CA", "EPOCH": "2025-12-26T05:49:00.250464", "MEAN_MOTION": 15.18288305, "ECCENTRICITY": 0.00026528, "INCLINATION": 97.4396, "RA_OF_ASC_NODE": 71.8016, "ARG_OF_PERICENTER": 141.7919, "MEAN_ANOMALY": 218.3504, "EPHEMERIS_TYPE": 0, "CLASSIFICATION_TYPE": "U", "NORAD_CAT_ID": 66738, "ELEMENT_SET_NO": 999, "REV_AT_EPOCH": 346, "BSTAR": 0.00045271705, "MEAN_MOTION_DOT": 9.219e-05, "MEAN_MOTION_DDOT": 0}, "tle": {"line1": "1 66738U 25276CA  25360.24236401  .00009219  00000+0  45272-3 0  9993", "line2": "2 66738  97.4396  71.8016 0002652 141.7919 218.3504 15.18288305  3467"}}, "geometry": {"type": "Point", "coordinates": [-106.79008110012721, 8.007983929092699]}}, {"type": "Feature", "properties": {"norad_id": 66739, "name": "FLOCK 4H-36", "group": "last-30-days", "lat": 33.25970138422612, "lon": -102.91597790757986, "alt_km": 508.1134377475619, "timestamp": "2025-12-26T14:28:46.395452+00:00", "meta": {"OBJECT_NAME": "FLOCK 4H-36", "OBJECT_ID": "2025-276CB", "EPOCH": "2025-12-26T05:55:37.527168", "MEAN_MOTION": 15.18038624, "ECCENTRICITY": 0.00026609, "INCLINATION": 97.4441, "RA_OF_ASC_NODE": 71.814, "ARG_OF_PERICENTER": 172.724, "MEAN_ANOMALY": 187.4033, "EPHEMERIS_TYPE": 0, "CLASSIFICATION_TYPE": "U", "NORAD_CAT_ID": 66739, "ELEMENT_SET_NO": 999, "REV_AT_EPOCH": 417, "BSTAR": 0.00045930438, "MEAN_MOTION_DOT": 9.287e-05, "MEAN_MOTION_DDOT": 0}, "tle": {"line1": "1 66739U 25276CB  25360.24696212  .00009287  00000+0  45930-3 0  9990", "line2": "2 66739  97.4441  71.8140 0002660 172.7240 187.4033 15.18038624  4176"}}, "geometry": {"type": "Point", "coordinates": [-102.91597790757986, 33.25970138422612]}}, {"type": "Feature", "properties": {"norad_id": 66740, "name": "TRANSPORTER-15CC", "group": "last-30-days", "lat": 62.501844926652616, "lon": -93.31789456757359, "alt_km": 506.829141211213, "timestamp": "2025-12-26T14:28:46.395462+00:00", "meta": {"OBJECT_NAME": "TRANSPORTER-15CC", "OBJECT_ID": "2025-276CC", "EPOCH": "2025-12-26T06:03:23.420160", "MEAN_MOTION": 15.17766017, "ECCENTRICITY": 0.00022462, "INCLINATION": 97.4406, "RA_OF_ASC_NODE": 71.7963, "ARG_OF_PERICENTER": 219.4862, "MEAN_ANOMALY": 140.6209, "EPHEMERIS_TYPE": 0, "CLASSIFICATION_TYPE": "U", "NORAD_CAT_ID": 66740, "ELEMENT_SET_NO": 999, "REV_AT_EPOCH": 417, "BSTAR": 0.000487639, "MEAN_MOTION_DOT": 9.788e-05, "MEAN_MOTION_DDOT": 0}, "tle": {"line1": "1 66740U 25276CC  25360.25235440  .00009788  00000+0  48764-3 0  9999", "line2": "2 66740  97.4406  71.7963 0002246 219.4862 140.6209 15.17766017  4179"}}, "geometry": {"type": "Point", "coordinates": [-93.31789456757359, 62.501844926652616]}}, {"type": "Feature", "properties": {"norad_id": 66741, "name": "TRANSPORTER-15CD", "group": "last-30-days", "lat": 68.81332434947146, "lon": -88.16668362652287, "alt_km": 506.4247035524877, "timestamp": "2025-12-26T14:28:46.395477+00:00", "meta": {"OBJECT_NAME": "TRANSPORTER-15CD", "OBJECT_ID": "2025-276CD", "EPOCH": "2025-12-26T06:05:06.525600", "MEAN_MOTION": 15.17651286, "ECCENTRICITY": 0.00012268, "INCLINATION": 97.4402, "RA_OF_ASC_NODE": 71.7863, "ARG_OF_PERICENTER": 211.6143, "MEAN_ANOMALY": 148.5018, "EPHEMERIS_TYPE": 0, "CLASSIFICATION_TYPE": "U", "NORAD_CAT_ID": 66741, "ELEMENT_SET_NO": 999, "REV_AT_EPOCH": 417, "BSTAR": 0.00018442174, "MEAN_MOTION_DOT": 3.645e-05, "MEAN_MOTION_DDOT": 0}, "tle": {"line1": "1 66741U 25276CD  25360.25354775  .00003645  00000+0  18442-3 0  9999", "line2": "2 66741  97.4402  71.7863 0001226 211.6143 148.5018 15.17651286  4174"}}, "geometry": {"type": "Point", "coordinates": [-88.16668362652287, 68.81332434947146]}}, {"type": "Feature", "properties": {"norad_id": 66742, "name": "TRANSPORTER-15CE", "group": "last-30-days", "lat": 59.78295497619898, "lon": -94.9033530196093, "alt_km": 506.1435386795083, "timestamp": "2025-12-26T14:28:46.395488+00:00", "meta": {"OBJECT_NAME": "TRANSPORTER-15CE", "OBJECT_ID": "2025-276CE", "EPOCH": "2025-12-26T06:02:38.740128", "MEAN_MOTION": 15.17742019, "ECCENTRICITY": 0.00019161, "INCLINATION": 97.4395, "RA_OF_ASC_NODE": 71.7861, "ARG_OF_PERICENTER": 176.345, "MEAN_ANOMALY": 183.7798, "EPHEMERIS_TYPE": 0, "CLASSIFICATION_TYPE": "U", "NORAD_CAT_ID": 66742, "ELEMENT_SET_NO": 999, "REV_AT_EPOCH": 417, "BSTAR": 0.00047114031, "MEAN_MOTION_DOT": 9.447e-05, "MEAN_MOTION_DDOT": 0}, "tle": {"line1": "1 66742U 25276CE  25360.25183727  .00009447  00000+0  47114-3 0  9991", "line2": "2 66742  97.4395  71.7861 0001916 176.3450 183.7798 15.17742019  4179"}}, "geometry": {"type": "Point", "coordinates": [-94.9033530196093, 59.78295497619898]}}, {"type": "Feature", "properties": {"norad_id": 66743, "name": "TRANSPORTER-15CF", "group": "last-30-days", "lat": 33.96551321754401, "lon": 67.04484822198887, "alt_km": 550.0934696638724, "timestamp": "2025-12-26T14:28:46.395500+00:00", "meta": {"OBJECT_NAME": "TRANSPORTER-15CF", "OBJECT_ID": "2025-276CF", "EPOCH": "2025-12-25T04:50:49.043328", "MEAN_MOTION": 15.11484429, "ECCENTRICITY": 0.0034918, "INCLINATION": 97.4397, "RA_OF_ASC_NODE": 70.743, "ARG_OF_PERICENTER": 109.5161, "MEAN_ANOMALY": 250.9846, "EPHEMERIS_TYPE": 0, "CLASSIFICATION_TYPE": "U", "NORAD_CAT_ID": 66743, "ELEMENT_SET_NO": 999, "REV_AT_EPOCH": 401, "BSTAR": -0.23724, "MEAN_MOTION_DOT": -0.03580195, "MEAN_MOTION_DDOT": 0}, "tle": {"line1": "1 66743U 25276CF  25359.20195652 -.03580195  00000+0 -23724+0 0  9991", "line2": "2 66743  97.4397  70.7430 0034918 109.5161 250.9846 15.11484429  4014"}}, "geometry": {"type": "Point", "coordinates": [67.04484822198887, 33.96551321754401]}}, {"type": "Feature", "properties": {"norad_id": 66744, "name": "TRANSPORTER-15CG", "group": "last-30-days", "lat": 55.01335451839581, "lon": -97.21875198898344, "alt_km": 506.018625458054, "timestamp": "2025-12-26T14:28:46.395511+00:00", "meta": {"OBJECT_NAME": "TRANSPORTER-15CG", "OBJECT_ID": "2025-276CG", "EPOCH": "2025-12-25T03:09:31.796064", "MEAN_MOTION": 15.19341003, "ECCENTRICITY": 0.00243198, "INCLINATION": 97.3868, "RA_OF_ASC_NODE": 70.659, "ARG_OF_PERICENTER": 231.5349, "MEAN_ANOMALY": 128.3704, "EPHEMERIS_TYPE": 0, "CLASSIFICATION_TYPE": "U", "NORAD_CAT_ID": 66744, "ELEMENT_SET_NO": 999, "REV_AT_EPOCH": 400, "BSTAR": 0.00064815362, "MEAN_MOTION_DOT": 0.00013749, "MEAN_MOTION_DDOT": 0}, "tle": {"line1": "1 66744U 25276CG  25359.13161801  .00013749  00000+0  64815-3 0  9994", "line2": "2 66744  97.3868  70.6590 0024319 231.5349 128.3704 15.19341003  4009"}}, "geometry": {"type": "Point", "coordinates": [-97.21875198898344, 55.01335451839581]}}, {"type": "Feature", "properties": {"norad_id": 66745, "name": "TRANSPORTER-15CH", "group": "last-30-days", "lat": 81.6187909541715, "lon": -45.37412668430182, "alt_km": 506.2851670985374, "timestamp": "2025-12-26T14:28:46.395521+00:00", "meta": {"OBJECT_NAME": "TRANSPORTER-15CH", "OBJECT_ID": "2025-276CH", "EPOCH": "2025-12-26T06:09:15.119136", "MEAN_MOTION": 15.17414117, "ECCENTRICITY": 0.00013383, "INCLINATION": 97.4405, "RA_OF_ASC_NODE": 71.7835, "ARG_OF_PERICENTER": 189.439, "MEAN_ANOMALY": 170.6819, "EPHEMERIS_TYPE": 0, "CLASSIFICATION_TYPE": "U", "NORAD_CAT_ID": 66745, "ELEMENT_SET_NO": 999, "REV_AT_EPOCH": 417, "BSTAR": 0.00014596588, "MEAN_MOTION_DOT": 2.851e-05, "MEAN_MOTION_DDOT": 0}, "tle": {"line1": "1 66745U 25276CH  25360.25642499  .00002851  00000+0  14597-3 0  9991", "line2": "2 66745  97.4405  71.7835 0001338 189.4390 170.6819 15.17414117  4175"}}, "geometry": {"type": "Point", "coordinates": [-45.37412668430182, 81.6187909541715]}}, {"type": "Feature", "properties": {"norad_id": 66746, "name": "TRANSPORTER-15CJ", "group": "last-30-days", "lat": 63.877148976454485, "lon": -92.51147946585179, "alt_km": 499.03417225660087, "timestamp": "2025-12-26T14:28:46.395531+00:00", "meta": {"OBJECT_NAME": "TRANSPORTER-15CJ", "OBJECT_ID": "2025-276CJ", "EPOCH": "2025-12-26T06:04:17.485824", "MEAN_MOTION": 15.19464736, "ECCENTRICITY": 0.00134217, "INCLINATION": 97.3831, "RA_OF_ASC_NODE": 71.8136, "ARG_OF_PERICENTER": 192.694, "MEAN_ANOMALY": 167.3959, "EPHEMERIS_TYPE": 0, "CLASSIFICATION_TYPE": "U", "NORAD_CAT_ID": 66746, "ELEMENT_SET_NO": 999, "REV_AT_EPOCH": 417, "BSTAR": 0.00083165848, "MEAN_MOTION_DOT": 0.00017639, "MEAN_MOTION_DDOT": 0}, "tle": {"line1": "1 66746U 25276CJ  25360.25298016  .00017639  00000+0  83166-3 0  9992", "line2": "2 66746  97.3831  71.8136 0013421 192.6940 167.3959 15.19464736  4178"}}, "geometry": {"type": "Point", "coordinates": [-92.51147946585179, 63.877148976454485]}}]}